BEIDOU-2 G7 (C03)       
1 41586U 16037A   25069.85009122 -.00000370  00000+0  00000+0 0  9999
2 41586   1.5252  67.4899 0010569 332.7522 185.0910  1.00270257  2245
BEIDOU-3 M1 (C19)       
1 43001U 17069A   25067.05649227  .00000000  00000+0  00000+0 0  9994
2 43001  56.2839  78.4858 0012365 304.1528  55.7693  1.86231147 49925
BEIDOU-3 M7 (C27)       
1 43107U 18003A   25067.81484853 -.00000074  00000+0  00000+0 0  9998
2 43107  54.7309 318.4913 0004592  62.6105 297.4816  1.86232387 48687
BEIDOU-3 M8 (C28)       
1 43108U 18003B   25069.36832365 -.00000072  00000+0  00000+0 0  9994
2 43108  54.7225 318.4217 0003266 286.3687  73.6447  1.86230927 48726
BEIDOU-3 M4 (C22)       
1 43207U 18018A   25063.36596972 -.00000007  00000+0  00000+0 0  9993
2 43207  56.2390  78.6887 0006664 342.1800  17.8366  1.86230925 47993
BEIDOU-3 M3 (C21)       
1 43208U 18018B   25067.72813363  .00000004  00000+0  00000+0 0  9990
2 43208  56.2428  78.5478 0009972 313.7822  46.1761  1.86231207 48072
BEIDOU-3 M9 (C29)       
1 43245U 18029A   25069.02094411 -.00000067  00000+0  00000+0 0  9993
2 43245  54.6048 316.1304 0001009 352.3522   7.6961  1.86232651 47258
BEIDOU-2 IGSO-7 (C16)   
1 43539U 18057A   25068.73094567 -.00000180  00000+0  00000+0 0  9995
2 43539  55.1582 167.0862 0085733 235.0900 140.9256  1.00287235 24479
BEIDOU-3 M5 (C23)       
1 43581U 18062A   25068.10325102 -.00000025  00000+0  00000+0 0  9999
2 43581  54.1082 198.1166 0001871 300.8867  59.0509  1.86228605 44974
BEIDOU-3 M6 (C24)       
1 43582U 18062B   25069.57859047 -.00000040  00000+0  00000+0 0  9999
2 43582  54.1076 198.0556 0005882  40.3747 319.6202  1.86229443 45000
BEIDOU-3 M12 (C26)      
1 43602U 18067A   25068.97654447 -.00000037  00000+0  00000+0 0  9993
2 43602  54.2001 196.7821 0007964  35.0009 325.0053  1.86227794 44479
