[
    {
        "OBJECT_NAME": "BEIDOU-2 G7",
        "OBJECT_ID": "2016-037A",
        "EPOCH": "2025-03-10T20:24:07.881408",
        "MEAN_MOTION": 1.00270257,
        "ECCENTRICITY": 0.0010569,
        "INCLINATION": 1.5252,
        "RA_OF_ASC_NODE": 67.4899,
        "ARG_OF_PERICENTER": 332.7522,
        "MEAN_ANOMALY": 185.091,
        "EPHEMERIS_TYPE": 0,
        "CLASSIFICATION_TYPE": "U",
        "NORAD_CAT_ID": 41586,
        "ELEMENT_SET_NO": 999,
        "REV_AT_EPOCH": 224,
        "BSTAR": 0,
        "MEAN_MOTION_DOT": -3.7e-06,
        "MEAN_MOTION_DDOT": 0
    },
    {
        "OBJECT_NAME": "BEIDOU-3 M1",
        "OBJECT_ID": "2017-069A",
        "EPOCH": "2025-03-08T01:21:20.932128",
        "MEAN_MOTION": 1.86231147,
        "ECCENTRICITY": 0.0012365,
        "INCLINATION": 56.2839,
        "RA_OF_ASC_NODE": 78.4858,
        "ARG_OF_PERICENTER": 304.1528,
        "MEAN_ANOMALY": 55.7693,
        "EPHEMERIS_TYPE": 0,
        "CLASSIFICATION_TYPE": "U",
        "NORAD_CAT_ID": 43001,
        "ELEMENT_SET_NO": 999,
        "REV_AT_EPOCH": 4992,
        "BSTAR": 0,
        "MEAN_MOTION_DOT": 0,
        "MEAN_MOTION_DDOT": 0
    },
    {
        "OBJECT_NAME": "BEIDOU-3 M7",
        "OBJECT_ID": "2018-003A",
        "EPOCH": "2025-03-08T19:33:22.912992",
        "MEAN_MOTION": 1.86232387,
        "ECCENTRICITY": 0.0004592,
        "INCLINATION": 54.7309,
        "RA_OF_ASC_NODE": 318.4913,
        "ARG_OF_PERICENTER": 62.6105,
        "MEAN_ANOMALY": 297.4816,
        "EPHEMERIS_TYPE": 0,
        "CLASSIFICATION_TYPE": "U",
        "NORAD_CAT_ID": 43107,
        "ELEMENT_SET_NO": 999,
        "REV_AT_EPOCH": 4868,
        "BSTAR": 0,
        "MEAN_MOTION_DOT": -7.4e-07,
        "MEAN_MOTION_DDOT": 0
    },
    {
        "OBJECT_NAME": "BEIDOU-3 M8",
        "OBJECT_ID": "2018-003B",
        "EPOCH": "2025-03-10T08:50:23.163360",
        "MEAN_MOTION": 1.86230927,
        "ECCENTRICITY": 0.0003266,
        "INCLINATION": 54.7225,
        "RA_OF_ASC_NODE": 318.4217,
        "ARG_OF_PERICENTER": 286.3687,
        "MEAN_ANOMALY": 73.6447,
        "EPHEMERIS_TYPE": 0,
        "CLASSIFICATION_TYPE": "U",
        "NORAD_CAT_ID": 43108,
        "ELEMENT_SET_NO": 999,
        "REV_AT_EPOCH": 4872,
        "BSTAR": 0,
        "MEAN_MOTION_DOT": -7.2e-07,
        "MEAN_MOTION_DDOT": 0
    },
    {
        "OBJECT_NAME": "BEIDOU-3 M4",
        "OBJECT_ID": "2018-018A",
        "EPOCH": "2025-03-04T08:46:59.783808",
        "MEAN_MOTION": 1.86230925,
        "ECCENTRICITY": 0.0006664,
        "INCLINATION": 56.239,
        "RA_OF_ASC_NODE": 78.6887,
        "ARG_OF_PERICENTER": 342.18,
        "MEAN_ANOMALY": 17.8366,
        "EPHEMERIS_TYPE": 0,
        "CLASSIFICATION_TYPE": "U",
        "NORAD_CAT_ID": 43207,
        "ELEMENT_SET_NO": 999,
        "REV_AT_EPOCH": 4799,
        "BSTAR": 0,
        "MEAN_MOTION_DOT": -7e-08,
        "MEAN_MOTION_DDOT": 0
    },
    {
        "OBJECT_NAME": "BEIDOU-3 M3",
        "OBJECT_ID": "2018-018B",
        "EPOCH": "2025-03-08T17:28:30.745632",
        "MEAN_MOTION": 1.86231207,
        "ECCENTRICITY": 0.0009972,
        "INCLINATION": 56.2428,
        "RA_OF_ASC_NODE": 78.5478,
        "ARG_OF_PERICENTER": 313.7822,
        "MEAN_ANOMALY": 46.1761,
        "EPHEMERIS_TYPE": 0,
        "CLASSIFICATION_TYPE": "U",
        "NORAD_CAT_ID": 43208,
        "ELEMENT_SET_NO": 999,
        "REV_AT_EPOCH": 4807,
        "BSTAR": 0,
        "MEAN_MOTION_DOT": 4e-08,
        "MEAN_MOTION_DDOT": 0
    },
    {
        "OBJECT_NAME": "BEIDOU-3 M9",
        "OBJECT_ID": "2018-029A",
        "EPOCH": "2025-03-10T00:30:09.571104",
        "MEAN_MOTION": 1.86232651,
        "ECCENTRICITY": 0.0001009,
        "INCLINATION": 54.6048,
        "RA_OF_ASC_NODE": 316.1304,
        "ARG_OF_PERICENTER": 352.3522,
        "MEAN_ANOMALY": 7.6961,
        "EPHEMERIS_TYPE": 0,
        "CLASSIFICATION_TYPE": "U",
        "NORAD_CAT_ID": 43245,
        "ELEMENT_SET_NO": 999,
        "REV_AT_EPOCH": 4725,
        "BSTAR": 0,
        "MEAN_MOTION_DOT": -6.7e-07,
        "MEAN_MOTION_DDOT": 0
    },
    {
        "OBJECT_NAME": "BEIDOU-2 IGSO-7",
        "OBJECT_ID": "2018-057A",
        "EPOCH": "2025-03-09T17:32:33.705888",
        "MEAN_MOTION": 1.00287235,
        "ECCENTRICITY": 0.0085733,
        "INCLINATION": 55.1582,
        "RA_OF_ASC_NODE": 167.0862,
        "ARG_OF_PERICENTER": 235.09,
        "MEAN_ANOMALY": 140.9256,
        "EPHEMERIS_TYPE": 0,
        "CLASSIFICATION_TYPE": "U",
        "NORAD_CAT_ID": 43539,
        "ELEMENT_SET_NO": 999,
        "REV_AT_EPOCH": 2447,
        "BSTAR": 0,
        "MEAN_MOTION_DOT": -1.8e-06,
        "MEAN_MOTION_DDOT": 0
    },
    {
        "OBJECT_NAME": "BEIDOU-3 M5",
        "OBJECT_ID": "2018-062A",
        "EPOCH": "2025-03-09T02:28:40.888128",
        "MEAN_MOTION": 1.86228605,
        "ECCENTRICITY": 0.0001871,
        "INCLINATION": 54.1082,
        "RA_OF_ASC_NODE": 198.1166,
        "ARG_OF_PERICENTER": 300.8867,
        "MEAN_ANOMALY": 59.0509,
        "EPHEMERIS_TYPE": 0,
        "CLASSIFICATION_TYPE": "U",
        "NORAD_CAT_ID": 43581,
        "ELEMENT_SET_NO": 999,
        "REV_AT_EPOCH": 4497,
        "BSTAR": 0,
        "MEAN_MOTION_DOT": -2.5e-07,
        "MEAN_MOTION_DDOT": 0
    },
    {
        "OBJECT_NAME": "BEIDOU-3 M6",
        "OBJECT_ID": "2018-062B",
        "EPOCH": "2025-03-10T13:53:10.216608",
        "MEAN_MOTION": 1.86229443,
        "ECCENTRICITY": 0.0005882,
        "INCLINATION": 54.1076,
        "RA_OF_ASC_NODE": 198.0556,
        "ARG_OF_PERICENTER": 40.3747,
        "MEAN_ANOMALY": 319.6202,
        "EPHEMERIS_TYPE": 0,
        "CLASSIFICATION_TYPE": "U",
        "NORAD_CAT_ID": 43582,
        "ELEMENT_SET_NO": 999,
        "REV_AT_EPOCH": 4500,
        "BSTAR": 0,
        "MEAN_MOTION_DOT": -4e-07,
        "MEAN_MOTION_DDOT": 0
    },
    {
        "OBJECT_NAME": "BEIDOU-3 M12",
        "OBJECT_ID": "2018-067A",
        "EPOCH": "2025-03-09T23:26:13.442208",
        "MEAN_MOTION": 1.86227794,
        "ECCENTRICITY": 0.0007964,
        "INCLINATION": 54.2001,
        "RA_OF_ASC_NODE": 196.7821,
        "ARG_OF_PERICENTER": 35.0009,
        "MEAN_ANOMALY": 325.0053,
        "EPHEMERIS_TYPE": 0,
        "CLASSIFICATION_TYPE": "U",
        "NORAD_CAT_ID": 43602,
        "ELEMENT_SET_NO": 999,
        "REV_AT_EPOCH": 4447,
        "BSTAR": 0,
        "MEAN_MOTION_DOT": -3.7e-07,
        "MEAN_MOTION_DDOT": 0
    }
]